GLOBALSTAR M001
1 25162U 98008A   23291.97266928 -.00000066  00000-0  23169-3 0  9994
2 25162  52.0030 300.5063 0001837  53.1372 318.3183 12.38168688168491
GLOBALSTAR M004
1 25163U 98008B   23292.20805863 -.00000100  00000-0  21002-4 0  9993
2 25163  51.9974 105.8208 0003467  37.6173 134.6539 12.63340612185064
GLOBALSTAR M002
1 25164U 98008C   23291.94106128 -.00000045  00000-0  61078-3 0  9996
2 25164  52.0030 322.7562 0001529 108.6599 251.4387 11.61496539113574
GLOBALSTAR M003
1 25165U 98008D   23291.75894572  .00000055  00000-0  15463-2 0  9999
2 25165  51.9776  50.9688 0008465 148.6039   2.8407 12.11945671159560
GLOBALSTAR M014
1 25306U 98023A   23291.67882316 -.00000051  00000-0  49457-3 0  9995
2 25306  51.9826 259.4048 0001054 350.9699 179.9089 11.65461178120334
GLOBALSTAR M006
1 25307U 98023B   23292.14289826 -.00000048  00000-0  56529-3 0  9990
2 25307  51.9930 288.0187 0003714  94.2990 343.3181 11.58154940146606
GLOBALSTAR M015
1 25308U 98023C   23292.17274240  .00000020  00000-0  21349-2 0  9998
2 25308  51.9856 358.6032 0012744  78.2843 295.4706 11.48854226124686
GLOBALSTAR M008
1 25309U 98023D   23292.04461205 -.00000047  00000-0  38727-3 0  9993
2 25309  51.9953 158.2534 0002549 356.5925 169.4102 12.36030142163078
